SL-14 R/B               
1 21423U 91042B   25362.04370972  .00000582  00000+0  70666-4 0  9991
2 21423  82.4937 287.3733 0018472 114.2419 246.0728 14.81753424842466
ERS-1                   
1 21574U 91050A   25362.03011841  .00000448  00000+0  15810-3 0  9993
2 21574  98.7902  13.4671 0032836  56.0708 304.3593 14.39377158805420
ARIANE 40 R/B           
1 21610U 91050F   25362.11265889  .00000426  00000+0  14012-3 0  9995
2 21610  98.2145  51.9869 0002010 300.7319  59.3674 14.42826072808674
INTERCOSMOS 25          
1 21819U 91086A   25361.90916087  .00002124  00000+0  42294-3 0  9994
2 21819  82.6083 353.3999 1486249 271.6806  71.5202 12.11788978487991
SL-8 R/B                
1 21876U 92008B   25362.15808367  .00000146  00000+0  13436-3 0  9999
2 21876  82.9276 320.9779 0034200 336.8136  34.4018 13.75962461699587
SL-8 R/B                
1 21938U 92020B   25362.06258727  .00000177  00000+0  16684-3 0  9993
2 21938  82.9289 206.9388 0029830 135.9871  18.5492 13.75531334691285
USA 81                  
1 21949U 92023A   25361.56482798  .00000255  00000+0  86961-4 0  9992
2 21949  85.0081 173.0259 0001090  93.7463 266.3854 14.32332554 84466
COSMOS 2219             
1 22219U 92076A   25361.86282594  .00000413  00000+0  24128-3 0  9998
2 22219  71.0585 168.2186 0019543 306.0540  53.8772 14.14070309708226
SL-16 R/B               
1 22220U 92076B   25362.18265183 -.00000071  00000+0 -11468-4 0  9997
2 22220  71.0011 339.0008 0014026 213.5064 227.7834 14.16845918711703
COSMOS 2221             
1 22236U 92080A   25362.20394623  .00002673  00000+0  23655-3 0  9992
2 22236  82.5045 347.5225 0016306  74.7359 285.5664 14.95825175770108
SL-16 R/B               
1 22285U 92093B   25361.86765522 -.00000123  00000+0 -38452-4 0  9993
2 22285  71.0210 155.0395 0002667  25.3897 334.7357 14.15435235702997
COSMOS 2228             
1 22286U 92094A   25362.13327198  .00003350  00000+0  28955-3 0  9998
2 22286  82.5188 305.8055 0017836 177.1333 182.9995 14.96803854765357
