CCSDS_OMM_VERS = 2.0
CREATION_DATE  = 
ORIGINATOR     = 

OBJECT_NAME    = SL-14 R/B
OBJECT_ID      = 1991-042B
CENTER_NAME    = EARTH
REF_FRAME      = TEME
TIME_SYSTEM    = UTC
MEAN_ELEMENT_THEORY = SGP/SGP4

EPOCH          = 2025-12-28T01:02:56.519808
MEAN_MOTION    = 14.81753424
ECCENTRICITY   = .0018472
INCLINATION    = 82.4937
RA_OF_ASC_NODE = 287.3733
ARG_OF_PERICENTER = 114.2419
MEAN_ANOMALY   = 246.0728

EPHEMERIS_TYPE = 0
CLASSIFICATION_TYPE = U
NORAD_CAT_ID   = 21423
ELEMENT_SET_NO = 999
REV_AT_EPOCH   = 84246
BSTAR          = .70666E-4
MEAN_MOTION_DOT = .582E-5
MEAN_MOTION_DDOT = 0

CCSDS_OMM_VERS = 2.0
CREATION_DATE  = 
ORIGINATOR     = 

OBJECT_NAME    = ERS-1
OBJECT_ID      = 1991-050A
CENTER_NAME    = EARTH
REF_FRAME      = TEME
TIME_SYSTEM    = UTC
MEAN_ELEMENT_THEORY = SGP/SGP4

EPOCH          = 2025-12-28T00:43:22.230624
MEAN_MOTION    = 14.39377158
ECCENTRICITY   = .0032836
INCLINATION    = 98.7902
RA_OF_ASC_NODE = 13.4671
ARG_OF_PERICENTER = 56.0708
MEAN_ANOMALY   = 304.3593

EPHEMERIS_TYPE = 0
CLASSIFICATION_TYPE = U
NORAD_CAT_ID   = 21574
ELEMENT_SET_NO = 999
REV_AT_EPOCH   = 80542
BSTAR          = .1581E-3
MEAN_MOTION_DOT = .448E-5
MEAN_MOTION_DDOT = 0

CCSDS_OMM_VERS = 2.0
CREATION_DATE  = 
ORIGINATOR     = 

OBJECT_NAME    = ARIANE 40 R/B
OBJECT_ID      = 1991-050F
CENTER_NAME    = EARTH
REF_FRAME      = TEME
TIME_SYSTEM    = UTC
MEAN_ELEMENT_THEORY = SGP/SGP4

EPOCH          = 2025-12-28T02:42:13.728096
MEAN_MOTION    = 14.42826072
ECCENTRICITY   = .000201
INCLINATION    = 98.2145
RA_OF_ASC_NODE = 51.9869
ARG_OF_PERICENTER = 300.7319
MEAN_ANOMALY   = 59.3674

EPHEMERIS_TYPE = 0
CLASSIFICATION_TYPE = U
NORAD_CAT_ID   = 21610
ELEMENT_SET_NO = 999
REV_AT_EPOCH   = 80867
BSTAR          = .14012E-3
MEAN_MOTION_DOT = .426E-5
MEAN_MOTION_DDOT = 0

CCSDS_OMM_VERS = 2.0
CREATION_DATE  = 
ORIGINATOR     = 

OBJECT_NAME    = INTERCOSMOS 25
OBJECT_ID      = 1991-086A
CENTER_NAME    = EARTH
REF_FRAME      = TEME
TIME_SYSTEM    = UTC
MEAN_ELEMENT_THEORY = SGP/SGP4

EPOCH          = 2025-12-27T21:49:11.499168
MEAN_MOTION    = 12.11788978
ECCENTRICITY   = .1486249
INCLINATION    = 82.6083
RA_OF_ASC_NODE = 353.3999
ARG_OF_PERICENTER = 271.6806
MEAN_ANOMALY   = 71.5202

EPHEMERIS_TYPE = 0
CLASSIFICATION_TYPE = U
NORAD_CAT_ID   = 21819
ELEMENT_SET_NO = 999
REV_AT_EPOCH   = 48799
BSTAR          = .42294E-3
MEAN_MOTION_DOT = .2124E-4
MEAN_MOTION_DDOT = 0

CCSDS_OMM_VERS = 2.0
CREATION_DATE  = 
ORIGINATOR     = 

OBJECT_NAME    = SL-8 R/B
OBJECT_ID      = 1992-008B
CENTER_NAME    = EARTH
REF_FRAME      = TEME
TIME_SYSTEM    = UTC
MEAN_ELEMENT_THEORY = SGP/SGP4

EPOCH          = 2025-12-28T03:47:38.429088
MEAN_MOTION    = 13.75962461
ECCENTRICITY   = .00342
INCLINATION    = 82.9276
RA_OF_ASC_NODE = 320.9779
ARG_OF_PERICENTER = 336.8136
MEAN_ANOMALY   = 34.4018

EPHEMERIS_TYPE = 0
CLASSIFICATION_TYPE = U
NORAD_CAT_ID   = 21876
ELEMENT_SET_NO = 999
REV_AT_EPOCH   = 69958
BSTAR          = .13436E-3
MEAN_MOTION_DOT = .146E-5
MEAN_MOTION_DDOT = 0

CCSDS_OMM_VERS = 2.0
CREATION_DATE  = 
ORIGINATOR     = 

OBJECT_NAME    = SL-8 R/B
OBJECT_ID      = 1992-020B
CENTER_NAME    = EARTH
REF_FRAME      = TEME
TIME_SYSTEM    = UTC
MEAN_ELEMENT_THEORY = SGP/SGP4

EPOCH          = 2025-12-28T01:30:07.540128
MEAN_MOTION    = 13.75531334
ECCENTRICITY   = .002983
INCLINATION    = 82.9289
RA_OF_ASC_NODE = 206.9388
ARG_OF_PERICENTER = 135.9871
MEAN_ANOMALY   = 18.5492

EPHEMERIS_TYPE = 0
CLASSIFICATION_TYPE = U
NORAD_CAT_ID   = 21938
ELEMENT_SET_NO = 999
REV_AT_EPOCH   = 69128
BSTAR          = .16684E-3
MEAN_MOTION_DOT = .177E-5
MEAN_MOTION_DDOT = 0

CCSDS_OMM_VERS = 2.0
CREATION_DATE  = 
ORIGINATOR     = 

OBJECT_NAME    = USA 81
OBJECT_ID      = 1992-023A
CENTER_NAME    = EARTH
REF_FRAME      = TEME
TIME_SYSTEM    = UTC
MEAN_ELEMENT_THEORY = SGP/SGP4

EPOCH          = 2025-12-27T13:33:21.137472
MEAN_MOTION    = 14.32332554
ECCENTRICITY   = .00010904
INCLINATION    = 85.0081
RA_OF_ASC_NODE = 173.0259
ARG_OF_PERICENTER = 93.7463
MEAN_ANOMALY   = 266.3854

EPHEMERIS_TYPE = 0
CLASSIFICATION_TYPE = U
NORAD_CAT_ID   = 21949
ELEMENT_SET_NO = 999
REV_AT_EPOCH   = 8446
BSTAR          = .86960701E-4
MEAN_MOTION_DOT = .255E-5
MEAN_MOTION_DDOT = 0

CCSDS_OMM_VERS = 2.0
CREATION_DATE  = 
ORIGINATOR     = 

OBJECT_NAME    = COSMOS 2219
OBJECT_ID      = 1992-076A
CENTER_NAME    = EARTH
REF_FRAME      = TEME
TIME_SYSTEM    = UTC
MEAN_ELEMENT_THEORY = SGP/SGP4

EPOCH          = 2025-12-27T20:42:28.161216
MEAN_MOTION    = 14.14070309
ECCENTRICITY   = .00195434
INCLINATION    = 71.0585
RA_OF_ASC_NODE = 168.2186
ARG_OF_PERICENTER = 306.0540
MEAN_ANOMALY   = 53.8772

EPHEMERIS_TYPE = 0
CLASSIFICATION_TYPE = U
NORAD_CAT_ID   = 22219
ELEMENT_SET_NO = 999
REV_AT_EPOCH   = 70822
BSTAR          = .24127627E-3
MEAN_MOTION_DOT = .413E-5
MEAN_MOTION_DDOT = 0

CCSDS_OMM_VERS = 2.0
CREATION_DATE  = 
ORIGINATOR     = 

OBJECT_NAME    = SL-16 R/B
OBJECT_ID      = 1992-076B
CENTER_NAME    = EARTH
REF_FRAME      = TEME
TIME_SYSTEM    = UTC
MEAN_ELEMENT_THEORY = SGP/SGP4

EPOCH          = 2025-12-28T04:23:01.118112
MEAN_MOTION    = 14.16845918
ECCENTRICITY   = .0014026
INCLINATION    = 71.0011
RA_OF_ASC_NODE = 339.0008
ARG_OF_PERICENTER = 213.5064
MEAN_ANOMALY   = 227.7834

EPHEMERIS_TYPE = 0
CLASSIFICATION_TYPE = U
NORAD_CAT_ID   = 22220
ELEMENT_SET_NO = 999
REV_AT_EPOCH   = 71170
BSTAR          = -.11468E-4
MEAN_MOTION_DOT = -.71E-6
MEAN_MOTION_DDOT = 0

CCSDS_OMM_VERS = 2.0
CREATION_DATE  = 
ORIGINATOR     = 

OBJECT_NAME    = COSMOS 2221
OBJECT_ID      = 1992-080A
CENTER_NAME    = EARTH
REF_FRAME      = TEME
TIME_SYSTEM    = UTC
MEAN_ELEMENT_THEORY = SGP/SGP4

EPOCH          = 2025-12-28T04:53:40.954272
MEAN_MOTION    = 14.95825175
ECCENTRICITY   = .0016306
INCLINATION    = 82.5045
RA_OF_ASC_NODE = 347.5225
ARG_OF_PERICENTER = 74.7359
MEAN_ANOMALY   = 285.5664

EPHEMERIS_TYPE = 0
CLASSIFICATION_TYPE = U
NORAD_CAT_ID   = 22236
ELEMENT_SET_NO = 999
REV_AT_EPOCH   = 77010
BSTAR          = .23655E-3
MEAN_MOTION_DOT = .2673E-4
MEAN_MOTION_DDOT = 0

CCSDS_OMM_VERS = 2.0
CREATION_DATE  = 
ORIGINATOR     = 

OBJECT_NAME    = SL-16 R/B
OBJECT_ID      = 1992-093B
CENTER_NAME    = EARTH
REF_FRAME      = TEME
TIME_SYSTEM    = UTC
MEAN_ELEMENT_THEORY = SGP/SGP4

EPOCH          = 2025-12-27T20:49:25.411008
MEAN_MOTION    = 14.15435235
ECCENTRICITY   = .00026675
INCLINATION    = 71.0210
RA_OF_ASC_NODE = 155.0395
ARG_OF_PERICENTER = 25.3897
MEAN_ANOMALY   = 334.7357

EPHEMERIS_TYPE = 0
CLASSIFICATION_TYPE = U
NORAD_CAT_ID   = 22285
ELEMENT_SET_NO = 999
REV_AT_EPOCH   = 70299
BSTAR          = -.38451863E-4
MEAN_MOTION_DOT = -.123E-5
MEAN_MOTION_DDOT = 0

CCSDS_OMM_VERS = 2.0
CREATION_DATE  = 
ORIGINATOR     = 

OBJECT_NAME    = COSMOS 2228
OBJECT_ID      = 1992-094A
CENTER_NAME    = EARTH
REF_FRAME      = TEME
TIME_SYSTEM    = UTC
MEAN_ELEMENT_THEORY = SGP/SGP4

EPOCH          = 2025-12-28T03:11:54.699072
MEAN_MOTION    = 14.96803854
ECCENTRICITY   = .0017836
INCLINATION    = 82.5188
RA_OF_ASC_NODE = 305.8055
ARG_OF_PERICENTER = 177.1333
MEAN_ANOMALY   = 182.9995

EPHEMERIS_TYPE = 0
CLASSIFICATION_TYPE = U
NORAD_CAT_ID   = 22286
ELEMENT_SET_NO = 999
REV_AT_EPOCH   = 76535
BSTAR          = .28955E-3
MEAN_MOTION_DOT = .335E-4
MEAN_MOTION_DDOT = 0

